{
  "type": "FeatureCollection",
  "features": [
    {
      "type": "Feature",
      "properties": {
        "norad_id": 38833,
        "name": "GPS BIIF-3  (PRN 24)",
        "group": "gps-ops",
        "lat": 24.27745566358599,
        "lon": 170.42645475774566,
        "alt_km": 19786.41727062336,
        "timestamp": "2025-12-19T08:58:49.597266+00:00",
        "meta_object_name": "GPS BIIF-3  (PRN 24)",
        "meta_object_id": "2012-053A",
        "meta_epoch": "2025-12-18T08:03:02.727072",
        "meta_mean_motion": 2.00565083,
        "meta_eccentricity": 0.01760229,
        "meta_inclination": 53.559,
        "meta_ra_of_asc_node": 151.0095,
        "meta_arg_of_pericenter": 64.0757,
        "meta_mean_anomaly": 297.7154,
        "meta_ephemeris_type": 0,
        "meta_classification_type": "U",
        "meta_norad_cat_id": 38833,
        "meta_element_set_no": 999,
        "meta_rev_at_epoch": 9581,
        "meta_bstar": 0,
        "meta_mean_motion_dot": 6.1e-07,
        "meta_mean_motion_ddot": 0,
        "tle_line1": "1 38833U 12053A   25352.33544823  .00000061  00000+0  00000+0 0  9990",
        "tle_line2": "2 38833  53.5590 151.0095 0176022  64.0757 297.7154  2.00565083 95819"
      },
      "geometry": {
        "type": "Point",
        "coordinates": [
          170.42645475774566,
          24.27745566358599
        ]
      }
    },
    {
      "type": "Feature",
      "properties": {
        "norad_id": 39166,
        "name": "GPS BIIF-4  (PRN 27)",
        "group": "gps-ops",
        "lat": 38.032258943121796,
        "lon": 62.61379084940538,
        "alt_km": 20123.265481695824,
        "timestamp": "2025-12-19T08:58:49.597277+00:00",
        "meta_object_name": "GPS BIIF-4  (PRN 27)",
        "meta_object_id": "2013-023A",
        "meta_epoch": "2025-12-18T04:47:18.266208",
        "meta_mean_motion": 2.00564721,
        "meta_eccentricity": 0.01382651,
        "meta_inclination": 54.6473,
        "meta_ra_of_asc_node": 276.3463,
        "meta_arg_of_pericenter": 48.6769,
        "meta_mean_anomaly": 312.5268,
        "meta_ephemeris_type": 0,
        "meta_classification_type": "U",
        "meta_norad_cat_id": 39166,
        "meta_element_set_no": 999,
        "meta_rev_at_epoch": 9225,
        "meta_bstar": 0,
        "meta_mean_motion_dot": -3.9e-07,
        "meta_mean_motion_ddot": 0,
        "tle_line1": "1 39166U 13023A   25352.19951697 -.00000039  00000+0  00000+0 0  9999",
        "tle_line2": "2 39166  54.6473 276.3463 0138265  48.6769 312.5268  2.00564721 92254"
      },
      "geometry": {
        "type": "Point",
        "coordinates": [
          62.61379084940538,
          38.032258943121796
        ]
      }
    },
    {
      "type": "Feature",
      "properties": {
        "norad_id": 39533,
        "name": "GPS BIIF-5  (PRN 30)",
        "group": "gps-ops",
        "lat": 37.2179667634407,
        "lon": -57.406872565276345,
        "alt_km": 20194.727418857416,
        "timestamp": "2025-12-19T08:58:49.597289+00:00",
        "meta_object_name": "GPS BIIF-5  (PRN 30)",
        "meta_object_id": "2014-008A",
        "meta_epoch": "2025-12-17T04:42:21.782016",
        "meta_mean_motion": 2.00574699,
        "meta_eccentricity": 0.00793343,
        "meta_inclination": 53.632,
        "meta_ra_of_asc_node": 156.7429,
        "meta_arg_of_pericenter": 226.5757,
        "meta_mean_anomaly": 132.7662,
        "meta_ephemeris_type": 0,
        "meta_classification_type": "U",
        "meta_norad_cat_id": 39533,
        "meta_element_set_no": 999,
        "meta_rev_at_epoch": 8603,
        "meta_bstar": 0,
        "meta_mean_motion_dot": 7.8e-07,
        "meta_mean_motion_ddot": 0,
        "tle_line1": "1 39533U 14008A   25351.19608544  .00000078  00000+0  00000+0 0  9992",
        "tle_line2": "2 39533  53.6320 156.7429 0079334 226.5757 132.7662  2.00574699 86034"
      },
      "geometry": {
        "type": "Point",
        "coordinates": [
          -57.406872565276345,
          37.2179667634407
        ]
      }
    },
    {
      "type": "Feature",
      "properties": {
        "norad_id": 39741,
        "name": "GPS BIIF-6  (PRN 06)",
        "group": "gps-ops",
        "lat": -52.80852732917423,
        "lon": -81.96421291966706,
        "alt_km": 20099.008183552916,
        "timestamp": "2025-12-19T08:58:49.597299+00:00",
        "meta_object_name": "GPS BIIF-6  (PRN 06)",
        "meta_object_id": "2014-026A",
        "meta_epoch": "2025-12-18T23:24:45.536256",
        "meta_mean_motion": 2.00561013,
        "meta_eccentricity": 0.00393418,
        "meta_inclination": 56.5812,
        "meta_ra_of_asc_node": 338.5339,
        "meta_arg_of_pericenter": 319.0464,
        "meta_mean_anomaly": 40.6644,
        "meta_ephemeris_type": 0,
        "meta_classification_type": "U",
        "meta_norad_cat_id": 39741,
        "meta_element_set_no": 999,
        "meta_rev_at_epoch": 8492,
        "meta_bstar": 0,
        "meta_mean_motion_dot": -8.1e-07,
        "meta_mean_motion_ddot": 0,
        "tle_line1": "1 39741U 14026A   25352.97552704 -.00000081  00000+0  00000+0 0  9991",
        "tle_line2": "2 39741  56.5812 338.5339 0039341 319.0464  40.6644  2.00561013 84929"
      },
      "geometry": {
        "type": "Point",
        "coordinates": [
          -81.96421291966706,
          -52.80852732917423
        ]
      }
    },
    {
      "type": "Feature",
      "properties": {
        "norad_id": 40105,
        "name": "GPS BIIF-7  (PRN 09)",
        "group": "gps-ops",
        "lat": -36.009779961731226,
        "lon": -54.093359731391295,
        "alt_km": 20208.676424236295,
        "timestamp": "2025-12-19T08:58:49.597311+00:00",
        "meta_object_name": "GPS BIIF-7  (PRN 09)",
        "meta_object_id": "2014-045A",
        "meta_epoch": "2025-12-18T01:34:21.644256",
        "meta_mean_motion": 2.00572958,
        "meta_eccentricity": 0.00325491,
        "meta_inclination": 55.2322,
        "meta_ra_of_asc_node": 95.6864,
        "meta_arg_of_pericenter": 120.0469,
        "meta_mean_anomaly": 240.2601,
        "meta_ephemeris_type": 0,
        "meta_classification_type": "U",
        "meta_norad_cat_id": 40105,
        "meta_element_set_no": 999,
        "meta_rev_at_epoch": 8244,
        "meta_bstar": 0,
        "meta_mean_motion_dot": -3.8e-07,
        "meta_mean_motion_ddot": 0,
        "tle_line1": "1 40105U 14045A   25352.06552829 -.00000038  00000+0  00000+0 0  9998",
        "tle_line2": "2 40105  55.2322  95.6864 0032549 120.0469 240.2601  2.00572958 82445"
      },
      "geometry": {
        "type": "Point",
        "coordinates": [
          -54.093359731391295,
          -36.009779961731226
        ]
      }
    },
    {
      "type": "Feature",
      "properties": {
        "norad_id": 40294,
        "name": "GPS BIIF-8  (PRN 03)",
        "group": "gps-ops",
        "lat": -37.80827130576542,
        "lon": 7.480364353022711,
        "alt_km": 20257.013037652647,
        "timestamp": "2025-12-19T08:58:49.597322+00:00",
        "meta_object_name": "GPS BIIF-8  (PRN 03)",
        "meta_object_id": "2014-068A",
        "meta_epoch": "2025-12-18T10:36:49.514400",
        "meta_mean_motion": 2.0056529,
        "meta_eccentricity": 0.00608014,
        "meta_inclination": 56.862,
        "meta_ra_of_asc_node": 37.9254,
        "meta_arg_of_pericenter": 69.0723,
        "meta_mean_anomaly": 291.6423,
        "meta_ephemeris_type": 0,
        "meta_classification_type": "U",
        "meta_norad_cat_id": 40294,
        "meta_element_set_no": 999,
        "meta_rev_at_epoch": 8158,
        "meta_bstar": 0,
        "meta_mean_motion_dot": -6.7e-07,
        "meta_mean_motion_ddot": 0,
        "tle_line1": "1 40294U 14068A   25352.44223975 -.00000067  00000+0  00000+0 0  9993",
        "tle_line2": "2 40294  56.8620  37.9254 0060801  69.0723 291.6423  2.00565290 81588"
      },
      "geometry": {
        "type": "Point",
        "coordinates": [
          7.480364353022711,
          -37.80827130576542
        ]
      }
    },
    {
      "type": "Feature",
      "properties": {
        "norad_id": 40534,
        "name": "GPS BIIF-9  (PRN 26)",
        "group": "gps-ops",
        "lat": -30.87449829040691,
        "lon": 58.21639615225491,
        "alt_km": 20471.502925840196,
        "timestamp": "2025-12-19T08:58:49.597333+00:00",
        "meta_object_name": "GPS BIIF-9  (PRN 26)",
        "meta_object_id": "2015-013A",
        "meta_epoch": "2025-12-18T13:43:57.304128",
        "meta_mean_motion": 2.00562317,
        "meta_eccentricity": 0.01072792,
        "meta_inclination": 53.1969,
        "meta_ra_of_asc_node": 211.6486,
        "meta_arg_of_pericenter": 38.6162,
        "meta_mean_anomaly": 322.2412,
        "meta_ephemeris_type": 0,
        "meta_classification_type": "U",
        "meta_norad_cat_id": 40534,
        "meta_element_set_no": 999,
        "meta_rev_at_epoch": 7820,
        "meta_bstar": 0,
        "meta_mean_motion_dot": 8.6e-07,
        "meta_mean_motion_ddot": 0,
        "tle_line1": "1 40534U 15013A   25352.57219102  .00000086  00000+0  00000+0 0  9992",
        "tle_line2": "2 40534  53.1969 211.6486 0107279  38.6162 322.2412  2.00562317 78200"
      },
      "geometry": {
        "type": "Point",
        "coordinates": [
          58.21639615225491,
          -30.87449829040691
        ]
      }
    }
  ]
}